ONEWEB-0098             
1 45442U 20020U   24301.10209083  .00000185  00000+0  48710-3 0  9992
2 45442  87.8896 140.2118 0001641  73.3848 286.7460 13.11413066224253
ONEWEB-0055             
1 45443U 20020V   24300.85878621  .00000532  00000+0  14656-2 0  9991
2 45443  87.8900 140.2629 0001618  81.9506 278.1805 13.11414340224194
ONEWEB-0093             
1 45444U 20020W   24301.06309352 -.00000092  00000+0 -29590-3 0  9993
2 45444  87.8901 140.2047 0001809  84.6098 275.5236 13.11418224224293
ONEWEB-0029             
1 45445U 20020X   24300.85286537  .00000530  00000+0  14593-2 0  9990
2 45445  87.8901 140.2599 0001669  89.3430 270.7889 13.11416275224231
ONEWEB-0068             
1 45446U 20020Y   24301.05713452 -.00000667  00000+0 -19177-2 0  9991
2 45446  87.8901 140.2050 0001661  88.8699 271.2620 13.11417859224213
ONEWEB-0046             
1 45447U 20020Z   24301.05461394 -.00000400  00000+0 -11631-2 0  9999
2 45447  87.8897 140.2173 0001406  94.7512 265.3776 13.11417502224223
ONEWEB-0063             
1 45448U 20020AA  24300.85455959  .00000530  00000+0  14609-2 0  9997
2 45448  87.8900 140.2571 0001306  85.9522 274.1755 13.11416751224278
ONEWEB-0019             
1 45449U 20020AB  24301.05800460 -.00000359  00000+0 -10483-2 0  9999
2 45449  87.8906 140.2248 0001521  78.1268 282.0030 13.11417858224156
